IRIDIUM 159             
1 43578U 18061K   24282.59206473 -.00000005  00000+0 -86967-5 0  9994
2 43578  86.3952 314.3974 0002437  96.2977 263.8496 14.34218494325007
IRIDIUM 180             
1 43922U 19002A   24282.45200382  .00002811  00000+0  99608-3 0  9990
2 43922  86.3935 251.2822 0002167  82.9637 277.1805 14.34229970300597
IRIDIUM 176             
1 43923U 19002B   24282.42002053  .00017061  00000+0  26940-2 0  9994
2 43923  86.6066 251.3074 0002332  87.4999 272.6485 14.72278028308504
IRIDIUM 168             
1 43924U 19002C   24282.44566207  .00003084  00000+0  10933-2 0  9998
2 43924  86.3933 251.3449 0002241  85.6917 274.4535 14.34233645300579
IRIDIUM 173             
1 43925U 19002D   24282.43296769  .00002547  00000+0  90177-3 0  9993
2 43925  86.3934 251.2644 0002138  83.1651 276.9788 14.34239107300554
IRIDIUM 169             
1 43926U 19002E   24282.43165803  .00001075  00000+0  34484-3 0  9992
2 43926  86.4162 282.9138 0001831 143.4713 216.6611 14.38615718301553
IRIDIUM 172             
1 43927U 19002F   24282.42664241  .00000849  00000+0  29587-3 0  9998
2 43927  86.3938 251.2727 0002520  86.8863 273.2622 14.34221101300565
IRIDIUM 175             
1 43928U 19002G   24282.55040721  .00009851  00000+0  15547-2 0  9996
2 43928  86.1542 218.0177 0002509  92.7105 267.4399 14.72299892308510
